[{"OBJECT_NAME":"STARLINK-34062","OBJECT_ID":"2025-101AD","EPOCH":"2026-03-09T04:56:33.463104","MEAN_MOTION":15.27597112,"ECCENTRICITY":0.00013267,"INCLINATION":43.0031,"RA_OF_ASC_NODE":0.4821,"ARG_OF_PERICENTER":270.5758,"MEAN_ANOMALY":89.4941,"EPHEMERIS_TYPE":0,"CLASSIFICATION_TYPE":"U","NORAD_CAT_ID":64021,"ELEMENT_SET_NO":999,"REV_AT_EPOCH":4698,"BSTAR":0.00067061623,"MEAN_MOTION_DOT":0.00018247,"MEAN_MOTION_DDOT":0},{"OBJECT_NAME":"CZ-6A DEB","OBJECT_ID":"2022-151CC","EPOCH":"2026-03-09T19:21:24.185952","MEAN_MOTION":15.21292269,"ECCENTRICITY":0.00294338,"INCLINATION":98.6347,"RA_OF_ASC_NODE":160.1892,"ARG_OF_PERICENTER":145.6687,"MEAN_ANOMALY":214.6455,"EPHEMERIS_TYPE":0,"CLASSIFICATION_TYPE":"U","NORAD_CAT_ID":54333,"ELEMENT_SET_NO":999,"REV_AT_EPOCH":17712,"BSTAR":0.0073643753,"MEAN_MOTION_DOT":0.00170206,"MEAN_MOTION_DDOT":0}]
